ONEWEB-0403             
1 50483U 21132Q   24204.23982679  .00000101  00000+0  22225-3 0  9994
2 50483  87.9143 113.8101 0002151  78.0637 282.0737 13.18685133130001
ONEWEB-0404             
1 50484U 21132R   24204.95459876  .00000322  00000+0  87170-3 0  9997
2 50484  87.8991 159.2488 0002359  90.5737 269.5661 13.11414208124706
ONEWEB-0405             
1 50485U 21132S   24204.71089732  .00000041  00000+0  70129-4 0  9997
2 50485  87.9144 113.7061 0002353  70.8925 289.2462 13.18685003130462
ONEWEB-0406             
1 50486U 21132T   24204.69983239  .00000038  00000+0  64797-4 0  9990
2 50486  87.9145 113.7204 0001867  98.4683 261.6660 13.18685019130099
ONEWEB-0407             
1 50487U 21132U   24204.31412198  .00000115  00000+0  25949-3 0  9992
2 50487  87.9141 113.7976 0002185  76.1712 283.9663 13.18684766129986
ONEWEB-0409             
1 50488U 21132V   24204.95290138  .00000381  00000+0  10386-2 0  9994
2 50488  87.8980 159.2427 0002048  94.0451 266.0911 13.11417159124593
ONEWEB-0412             
1 50489U 21132W   24204.30306021  .00000064  00000+0  12846-3 0  9995
2 50489  87.9146 113.8008 0002421  70.2161 289.9232 13.18687782130077
ONEWEB-0413             
1 50490U 21132X   24204.68718628  .00000036  00000+0  57682-4 0  9995
2 50490  87.9145 113.7374 0002222  67.0199 293.1167 13.18684888130064
